start=new Date('2022-07-17T00:00:00.000Z').valueOf();
sats=[{"COUNTRY_CODE":"US","RA_OF_ASC_NODE":"355.5965","ECCENTRICITY":"0.00010570","ARG_OF_PERICENTER":"89.7849","TLE_LINE2":"2 45360  53.0559 355.5965 0001057  89.7849 270.3261 15.06402342129395","MEAN_ELEMENT_THEORY":"SGP4","TIME_SYSTEM":"UTC","LAUNCH_DATE":"2020-03-18","ELEMENT_SET_NO":"999","MEAN_MOTION_DDOT":"0.0000000000000","FILE":"3515618","DECAY_DATE":null,"TLE_LINE1":"1 45360U 20019A   22197.82487274  .00002184  00000-0  16544-3 0  9991","NORAD_CAT_ID":"45360","PERIAPSIS":"546.474","OBJECT_NAME":"STARLINK-1279","CLASSIFICATION_TYPE":"U","MEAN_MOTION":"15.06402342","OBJECT_ID":"2020-019A","PERIOD":"95.592","GP_ID":"208269074","EPOCH":"2022-07-16T19:47:49.004736","SEMIMAJOR_AXIS":"6925.341","MEAN_ANOMALY":"270.3261","MEAN_MOTION_DOT":"0.00002184","RCS_SIZE":"LARGE","REV_AT_EPOCH":"12939","REF_FRAME":"TEME","CENTER_NAME":"EARTH","INCLINATION":"53.0559","SITE":"AFETR","OBJECT_TYPE":"PAYLOAD","BSTAR":"0.00016544000000","EPHEMERIS_TYPE":"0","APOAPSIS":"547.938"},{"ARG_OF_PERICENTER":"73.6078","RA_OF_ASC_NODE":"5.3536","ECCENTRICITY":"0.00011760","COUNTRY_CODE":"US","LAUNCH_DATE":"2020-03-18","TIME_SYSTEM":"UTC","MEAN_ELEMENT_THEORY":"SGP4","TLE_LINE2":"2 45361  53.0554   5.3536 0001176  73.6078 286.5040 15.06393828129272","FILE":"3515618","MEAN_MOTION_DDOT":"0.0000000000000","ELEMENT_SET_NO":"999","NORAD_CAT_ID":"45361","TLE_LINE1":"1 45361U 20019B   22197.87923756  .00001411  00000-0  11358-3 0  9997","DECAY_DATE":null,"OBJECT_ID":"2020-019B","PERIOD":"95.593","MEAN_MOTION":"15.06393828","CLASSIFICATION_TYPE":"U","OBJECT_NAME":"STARLINK-1301","PERIAPSIS":"546.418","REV_AT_EPOCH":"12927","RCS_SIZE":"LARGE","MEAN_MOTION_DOT":"0.00001411","MEAN_ANOMALY":"286.5040","SEMIMAJOR_AXIS":"6925.367","EPOCH":"2022-07-16T21:06:06.125184","GP_ID":"208268815","SITE":"AFETR","CENTER_NAME":"EARTH","INCLINATION":"53.0554","REF_FRAME":"TEME","APOAPSIS":"548.047","EPHEMERIS_TYPE":"0","BSTAR":"0.00011358000000","OBJECT_TYPE":"PAYLOAD"},{"OBJECT_NAME":"STARLINK-1306","PERIAPSIS":"546.162","PERIOD":"95.592","OBJECT_ID":"2020-019C","MEAN_MOTION":"15.06403247","CLASSIFICATION_TYPE":"U","SEMIMAJOR_AXIS":"6925.339","EPOCH":"2022-07-16T19:01:22.732608","GP_ID":"208267573","RCS_SIZE":"LARGE","REV_AT_EPOCH":"12897","MEAN_ANOMALY":"285.2946","MEAN_MOTION_DOT":"0.00002947","REF_FRAME":"TEME","SITE":"AFETR","INCLINATION":"53.0546","CENTER_NAME":"EARTH","OBJECT_TYPE":"PAYLOAD","APOAPSIS":"548.245","BSTAR":"0.00021665000000","EPHEMERIS_TYPE":"0","COUNTRY_CODE":"US","ARG_OF_PERICENTER":"74.8209","RA_OF_ASC_NODE":"25.7390","ECCENTRICITY":"0.00015040","MEAN_ELEMENT_THEORY":"SGP4","TLE_LINE2":"2 45362  53.0546  25.7390 0001504  74.8209 285.2946 15.06403247128976","LAUNCH_DATE":"2020-03-18","TIME_SYSTEM":"UTC","ELEMENT_SET_NO":"999","FILE":"3515618","MEAN_MOTION_DDOT":"0.0000000000000","TLE_LINE1":"1 45362U 20019C   22197.79262422  .00002947  00000-0  21665-3 0  9992","DECAY_DATE":null,"NORAD_CAT_ID":"45362"},{"MEAN_MOTION_DDOT":"0.0000000000000","FILE":"3515618","ELEMENT_SET_NO":"999","NORAD_CAT_ID":"45364","DECAY_DATE":null,"TLE_LINE1":"1 45364U 20019E   22197.82119054  .00002662  00000-0  19752-3 0  9998","RA_OF_ASC_NODE":"355.6207","ECCENTRICITY":"0.00015190","ARG_OF_PERICENTER":"79.6933","COUNTRY_CODE":"US","TIME_SYSTEM":"UTC","LAUNCH_DATE":"2020-03-18","TLE_LINE2":"2 45364  53.0557 355.6207 0001519  79.6933 280.4227 15.06396996129393","MEAN_ELEMENT_THEORY":"SGP4","SITE":"AFETR","INCLINATION":"53.0557","CENTER_NAME":"EARTH","REF_FRAME":"TEME","EPHEMERIS_TYPE":"0","BSTAR":"0.00019752000000","APOAPSIS":"548.275","OBJECT_TYPE":"PAYLOAD","PERIOD":"95.592","OBJECT_ID":"2020-019E","CLASSIFICATION_TYPE":"U","MEAN_MOTION":"15.06396996","OBJECT_NAME":"STARLINK-1313","PERIAPSIS":"546.171","MEAN_ANOMALY":"280.4227","MEAN_MOTION_DOT":"0.00002662","RCS_SIZE":"LARGE","REV_AT_EPOCH":"12939","EPOCH":"2022-07-16T19:42:30.862656","SEMIMAJOR_AXIS":"6925.358","GP_ID":"208268323"},{"RA_OF_ASC_NODE":"5.5193","ECCENTRICITY":"0.00013860","ARG_OF_PERICENTER":"93.4133","COUNTRY_CODE":"US","TIME_SYSTEM":"UTC","LAUNCH_DATE":"2020-03-18","TLE_LINE2":"2 45365  53.0011   5.5193 0001386  93.4133 266.7014 15.05595048129212","MEAN_ELEMENT_THEORY":"SGP4","MEAN_MOTION_DDOT":"0.0000000000000","FILE":"3515618","ELEMENT_SET_NO":"999","NORAD_CAT_ID":"45365","DECAY_DATE":null,"TLE_LINE1":"1 45365U 20019F   22197.84428530  .00003274  00000-0  24370-3 0  9995","PERIOD":"95.643","OBJECT_ID":"2020-019F","CLASSIFICATION_TYPE":"U","MEAN_MOTION":"15.05595048","OBJECT_NAME":"STARLINK-1317","PERIAPSIS":"548.722","MEAN_ANOMALY":"266.7014","MEAN_MOTION_DOT":"0.00003274","RCS_SIZE":"LARGE","REV_AT_EPOCH":"12921","EPOCH":"2022-07-16T20:15:46.249920","SEMIMAJOR_AXIS":"6927.817","GP_ID":"208268575","SITE":"AFETR","CENTER_NAME":"EARTH","INCLINATION":"53.0011","REF_FRAME":"TEME","BSTAR":"0.00024370000000","EPHEMERIS_TYPE":"0","APOAPSIS":"550.642","OBJECT_TYPE":"PAYLOAD"},{"NORAD_CAT_ID":"45366","DECAY_DATE":null,"TLE_LINE1":"1 45366U 20019G   22197.84422635 -.00001199  00000-0 -61610-4 0  9991","MEAN_MOTION_DDOT":"0.0000000000000","FILE":"3515618","ELEMENT_SET_NO":"999","TIME_SYSTEM":"UTC","LAUNCH_DATE":"2020-03-18","TLE_LINE2":"2 45366  53.0563  25.5002 0001604  69.0834 291.0327 15.06405043128994","MEAN_ELEMENT_THEORY":"SGP4","RA_OF_ASC_NODE":"25.5002","ECCENTRICITY":"0.00016040","ARG_OF_PERICENTER":"69.0834","COUNTRY_CODE":"US","BSTAR":"-0.00006161000000","EPHEMERIS_TYPE":"0","APOAPSIS":"548.309","OBJECT_TYPE":"PAYLOAD","INCLINATION":"53.0563","CENTER_NAME":"EARTH","SITE":"AFETR","REF_FRAME":"TEME","MEAN_MOTION_DOT":"-0.00001199","MEAN_ANOMALY":"291.0327","REV_AT_EPOCH":"12899","RCS_SIZE":"LARGE","GP_ID":"208269315","EPOCH":"2022-07-16T20:15:41.156640","SEMIMAJOR_AXIS":"6925.333","CLASSIFICATION_TYPE":"U","MEAN_MOTION":"15.06405043","OBJECT_ID":"2020-019G","PERIOD":"95.592","PERIAPSIS":"546.087","OBJECT_NAME":"STARLINK-1262"},{"TIME_SYSTEM":"UTC","LAUNCH_DATE":"2020-03-18","TLE_LINE2":"2 45367  53.0535  25.6952 0001327  92.0924 268.0217 15.06404379128989","MEAN_ELEMENT_THEORY":"SGP4","ECCENTRICITY":"0.00013270","RA_OF_ASC_NODE":"25.6952","ARG_OF_PERICENTER":"92.0924","COUNTRY_CODE":"US","NORAD_CAT_ID":"45367","DECAY_DATE":null,"TLE_LINE1":"1 45367U 20019H   22197.79999679  .00008935  00000-0  61786-3 0  9999","MEAN_MOTION_DDOT":"0.0000000000000","FILE":"3515618","ELEMENT_SET_NO":"999","MEAN_MOTION_DOT":"0.00008935","MEAN_ANOMALY":"268.0217","RCS_SIZE":"LARGE","REV_AT_EPOCH":"12898","EPOCH":"2022-07-16T19:11:59.722656","SEMIMAJOR_AXIS":"6925.335","GP_ID":"208268073","PERIOD":"95.592","OBJECT_ID":"2020-019H","CLASSIFICATION_TYPE":"U","MEAN_MOTION":"15.06404379","OBJECT_NAME":"STARLINK-1273","PERIAPSIS":"546.281","EPHEMERIS_TYPE":"0","BSTAR":"0.00061786000000","APOAPSIS":"548.119","OBJECT_TYPE":"PAYLOAD","SITE":"AFETR","INCLINATION":"53.0535","CENTER_NAME":"EARTH","REF_FRAME":"TEME"},{"APOAPSIS":"548.246","BSTAR":"0.00011112000000","EPHEMERIS_TYPE":"0","OBJECT_TYPE":"PAYLOAD","SITE":"AFETR","INCLINATION":"53.0574","CENTER_NAME":"EARTH","REF_FRAME":"TEME","REV_AT_EPOCH":"12899","RCS_SIZE":"LARGE","MEAN_ANOMALY":"262.3100","MEAN_MOTION_DOT":"0.00001374","SEMIMAJOR_AXIS":"6925.355","EPOCH":"2022-07-16T20:05:04.151040","GP_ID":"208267824","PERIOD":"95.592","OBJECT_ID":"2020-019J","MEAN_MOTION":"15.06397852","CLASSIFICATION_TYPE":"U","OBJECT_NAME":"STARLINK-1276","PERIAPSIS":"546.194","NORAD_CAT_ID":"45368","TLE_LINE1":"1 45368U 20019J   22197.83685360  .00001374  00000-0  11112-3 0  9992","DECAY_DATE":null,"FILE":"3515618","MEAN_MOTION_DDOT":"0.0000000000000","ELEMENT_SET_NO":"999","LAUNCH_DATE":"2020-03-18","TIME_SYSTEM":"UTC","MEAN_ELEMENT_THEORY":"SGP4","TLE_LINE2":"2 45368  53.0574  25.5464 0001482  97.8057 262.3100 15.06397852128998","ARG_OF_PERICENTER":"97.8057","ECCENTRICITY":"0.00014820","RA_OF_ASC_NODE":"25.5464","COUNTRY_CODE":"US"},{"DECAY_DATE":null,"TLE_LINE1":"1 45369U 20019K   22197.83590928  .00001301  00000-0  10624-3 0  9995","NORAD_CAT_ID":"45369","ELEMENT_SET_NO":"999","MEAN_MOTION_DDOT":"0.0000000000000","FILE":"3515618","TLE_LINE2":"2 45369  53.0535  25.5322 0001373  82.5322 277.5823 15.06402671128990","MEAN_ELEMENT_THEORY":"SGP4","TIME_SYSTEM":"UTC","LAUNCH_DATE":"2020-03-18","COUNTRY_CODE":"US","RA_OF_ASC_NODE":"25.5322","ECCENTRICITY":"0.00013730","ARG_OF_PERICENTER":"82.5322","OBJECT_TYPE":"PAYLOAD","EPHEMERIS_TYPE":"0","BSTAR":"0.00010624000000","APOAPSIS":"548.156","REF_FRAME":"TEME","CENTER_NAME":"EARTH","INCLINATION":"53.0535","SITE":"AFETR","GP_ID":"208269075","EPOCH":"2022-07-16T20:03:42.561792","SEMIMAJOR_AXIS":"6925.340","MEAN_ANOMALY":"277.5823","MEAN_MOTION_DOT":"0.00001301","RCS_SIZE":"LARGE","REV_AT_EPOCH":"12899","PERIAPSIS":"546.255","OBJECT_NAME":"STARLINK-1277","CLASSIFICATION_TYPE":"U","MEAN_MOTION":"15.06402671","PERIOD":"95.592","OBJECT_ID":"2020-019K"},{"LAUNCH_DATE":"2020-03-18","TIME_SYSTEM":"UTC","MEAN_ELEMENT_THEORY":"SGP4","TLE_LINE2":"2 45370  53.0557  25.2985 0001400  72.8556 287.2586 15.06397028129006","ARG_OF_PERICENTER":"72.8556","RA_OF_ASC_NODE":"25.2985","ECCENTRICITY":"0.00014000","COUNTRY_CODE":"US","NORAD_CAT_ID":"45370","TLE_LINE1":"1 45370U 20019L   22197.89214589  .00001364  00000-0  11048-3 0  9999","DECAY_DATE":null,"FILE":"3515618","MEAN_MOTION_DDOT":"0.0000000000000","ELEMENT_SET_NO":"999","REV_AT_EPOCH":"12900","RCS_SIZE":"LARGE","MEAN_ANOMALY":"287.2586","MEAN_MOTION_DOT":"0.00001364","GP_ID":"208268816","SEMIMAJOR_AXIS":"6925.358","EPOCH":"2022-07-16T21:24:41.404896","MEAN_MOTION":"15.06397028","CLASSIFICATION_TYPE":"U","OBJECT_ID":"2020-019L","PERIOD":"95.592","PERIAPSIS":"546.253","OBJECT_NAME":"STARLINK-1281","APOAPSIS":"548.192","BSTAR":"0.00011048000000","EPHEMERIS_TYPE":"0","OBJECT_TYPE":"PAYLOAD","CENTER_NAME":"EARTH","INCLINATION":"53.0557","SITE":"AFETR","REF_FRAME":"TEME"}];
